{
  "links" : {
    "next" : "https://api.nasa.gov/neo/rest/v1/feed?start_date=2003-07-23&end_date=2003-07-23&detailed=true&api_key=t0TVs3DtDT2H8Oy2Zy8m2eVrNsAVKAexjcZXUckd",
    "prev" : "https://api.nasa.gov/neo/rest/v1/feed?start_date=2003-07-21&end_date=2003-07-21&detailed=true&api_key=t0TVs3DtDT2H8Oy2Zy8m2eVrNsAVKAexjcZXUckd",
    "self" : "https://api.nasa.gov/neo/rest/v1/feed?start_date=2003-07-22&end_date=2003-07-22&detailed=true&api_key=t0TVs3DtDT2H8Oy2Zy8m2eVrNsAVKAexjcZXUckd"
  },
  "element_count" : 3,
  "near_earth_objects" : {
    "2003-07-22" : [ {
      "links" : {
        "self" : "https://api.nasa.gov/neo/rest/v1/neo/3337713?api_key=t0TVs3DtDT2H8Oy2Zy8m2eVrNsAVKAexjcZXUckd"
      },
      "neo_reference_id" : "3337713",
      "name" : "(2006 OD7)",
      "nasa_jpl_url" : "http://ssd.jpl.nasa.gov/sbdb.cgi?sstr=3337713",
      "absolute_magnitude_h" : 19.3,
      "estimated_diameter" : {
        "kilometers" : {
          "estimated_diameter_min" : 0.3669061375,
          "estimated_diameter_max" : 0.8204270649
        },
        "meters" : {
          "estimated_diameter_min" : 366.9061375314,
          "estimated_diameter_max" : 820.4270648822
        },
        "miles" : {
          "estimated_diameter_min" : 0.2279848336,
          "estimated_diameter_max" : 0.5097895857
        },
        "feet" : {
          "estimated_diameter_min" : 1203.7603322587,
          "estimated_diameter_max" : 2691.6899315481
        }
      },
      "is_potentially_hazardous_asteroid" : false,
      "close_approach_data" : [ {
        "close_approach_date" : "2003-07-22",
        "epoch_date_close_approach" : 1058857200000,
        "relative_velocity" : {
          "kilometers_per_second" : "20.1209935163",
          "kilometers_per_hour" : "72435.5766585205",
          "miles_per_hour" : "45008.6503965124"
        },
        "miss_distance" : {
          "astronomical" : "0.4667277891",
          "lunar" : "181.5571136475",
          "kilometers" : "69821488",
          "miles" : "43385060"
        },
        "orbiting_body" : "Earth"
      } ],
      "orbital_data" : {
        "orbit_id" : "31",
        "orbit_determination_date" : "2017-04-06 09:08:21",
        "orbit_uncertainty" : "1",
        "minimum_orbit_intersection" : ".104768",
        "jupiter_tisserand_invariant" : "4.760",
        "epoch_osculation" : "2458000.5",
        "eccentricity" : ".1663160836257001",
        "semi_major_axis" : "1.334866044146819",
        "inclination" : "30.33006401785748",
        "ascending_node_longitude" : "127.6827482616083",
        "orbital_period" : "563.3197210117266",
        "perihelion_distance" : "1.112856351519389",
        "perihelion_argument" : "197.3316737904712",
        "aphelion_distance" : "1.556875736774249",
        "perihelion_time" : "2457912.768380512642",
        "mean_anomaly" : "56.0665317356986",
        "mean_motion" : ".6390686968200531",
        "equinox" : "J2000"
      }
    }, {
      "links" : {
        "self" : "https://api.nasa.gov/neo/rest/v1/neo/3465534?api_key=t0TVs3DtDT2H8Oy2Zy8m2eVrNsAVKAexjcZXUckd"
      },
      "neo_reference_id" : "3465534",
      "name" : "(2009 PC)",
      "nasa_jpl_url" : "http://ssd.jpl.nasa.gov/sbdb.cgi?sstr=3465534",
      "absolute_magnitude_h" : 23.2,
      "estimated_diameter" : {
        "kilometers" : {
          "estimated_diameter_min" : 0.0608912622,
          "estimated_diameter_max" : 0.1361570015
        },
        "meters" : {
          "estimated_diameter_min" : 60.8912622106,
          "estimated_diameter_max" : 136.1570015386
        },
        "miles" : {
          "estimated_diameter_min" : 0.0378360645,
          "estimated_diameter_max" : 0.0846040122
        },
        "feet" : {
          "estimated_diameter_min" : 199.7744887109,
          "estimated_diameter_max" : 446.7093369279
        }
      },
      "is_potentially_hazardous_asteroid" : false,
      "close_approach_data" : [ {
        "close_approach_date" : "2003-07-22",
        "epoch_date_close_approach" : 1058857200000,
        "relative_velocity" : {
          "kilometers_per_second" : "12.7122097378",
          "kilometers_per_hour" : "45763.9550560832",
          "miles_per_hour" : "28435.9419624868"
        },
        "miss_distance" : {
          "astronomical" : "0.0792487824",
          "lunar" : "30.8277778625",
          "kilometers" : "11855450",
          "miles" : "7366635"
        },
        "orbiting_body" : "Earth"
      } ],
      "orbital_data" : {
        "orbit_id" : "9",
        "orbit_determination_date" : "2017-04-06 09:00:19",
        "orbit_uncertainty" : "7",
        "minimum_orbit_intersection" : ".038182",
        "jupiter_tisserand_invariant" : "6.041",
        "epoch_osculation" : "2458000.5",
        "eccentricity" : ".34267812941381",
        "semi_major_axis" : ".9958733282810075",
        "inclination" : "7.091489820325958",
        "ascending_node_longitude" : "134.3475514410248",
        "orbital_period" : "362.9982895067052",
        "perihelion_distance" : ".6546093190125667",
        "perihelion_argument" : "48.26353419735084",
        "aphelion_distance" : "1.337137337549448",
        "perihelion_time" : "2457856.370988436405",
        "mean_anomaly" : "142.9385362487662",
        "mean_motion" : ".9917402103718458",
        "equinox" : "J2000"
      }
    }, {
      "links" : {
        "self" : "https://api.nasa.gov/neo/rest/v1/neo/3616348?api_key=t0TVs3DtDT2H8Oy2Zy8m2eVrNsAVKAexjcZXUckd"
      },
      "neo_reference_id" : "3616348",
      "name" : "(2012 VH5)",
      "nasa_jpl_url" : "http://ssd.jpl.nasa.gov/sbdb.cgi?sstr=3616348",
      "absolute_magnitude_h" : 22.5,
      "estimated_diameter" : {
        "kilometers" : {
          "estimated_diameter_min" : 0.0840533402,
          "estimated_diameter_max" : 0.1879489824
        },
        "meters" : {
          "estimated_diameter_min" : 84.0533402073,
          "estimated_diameter_max" : 187.9489824394
        },
        "miles" : {
          "estimated_diameter_min" : 0.0522283081,
          "estimated_diameter_max" : 0.1167860472
        },
        "feet" : {
          "estimated_diameter_min" : 275.7655606856,
          "estimated_diameter_max" : 616.6305395464
        }
      },
      "is_potentially_hazardous_asteroid" : false,
      "close_approach_data" : [ {
        "close_approach_date" : "2003-07-22",
        "epoch_date_close_approach" : 1058857200000,
        "relative_velocity" : {
          "kilometers_per_second" : "18.4209889736",
          "kilometers_per_hour" : "66315.5603048308",
          "miles_per_hour" : "41205.9102349655"
        },
        "miss_distance" : {
          "astronomical" : "0.4124675175",
          "lunar" : "160.4498596191",
          "kilometers" : "61704260",
          "miles" : "38341252"
        },
        "orbiting_body" : "Earth"
      } ],
      "orbital_data" : {
        "orbit_id" : "16",
        "orbit_determination_date" : "2017-04-06 08:48:14",
        "orbit_uncertainty" : "3",
        "minimum_orbit_intersection" : ".159253",
        "jupiter_tisserand_invariant" : "5.754",
        "epoch_osculation" : "2458000.5",
        "eccentricity" : ".2452270547550088",
        "semi_major_axis" : "1.064367219962325",
        "inclination" : "9.340560642097799",
        "ascending_node_longitude" : "17.55880378804199",
        "orbital_period" : "401.0843007088826",
        "perihelion_distance" : ".8033555814331872",
        "perihelion_argument" : "170.7211572404861",
        "aphelion_distance" : "1.325378858491462",
        "perihelion_time" : "2457989.062283277782",
        "mean_anomaly" : "10.26611615742875",
        "mean_motion" : ".8975669188839616",
        "equinox" : "J2000"
      }
    } ]
  }
}